[{"OBJECT_NAME":"STARLINK-34794","OBJECT_ID":"2025-165Q","EPOCH":"2026-03-09T19:13:11.286912","MEAN_MOTION":15.05626104,"ECCENTRICITY":6.586e-5,"INCLINATION":97.6016,"RA_OF_ASC_NODE":147.2836,"ARG_OF_PERICENTER":163.6731,"MEAN_ANOMALY":196.4517,"EPHEMERIS_TYPE":0,"CLASSIFICATION_TYPE":"U","NORAD_CAT_ID":65070,"ELEMENT_SET_NO":999,"REV_AT_EPOCH":3480,"BSTAR":8.9258012e-5,"MEAN_MOTION_DOT":1.227e-5,"MEAN_MOTION_DDOT":0},{"OBJECT_NAME":"CZ-4B DEB","OBJECT_ID":"1999-057KD","EPOCH":"2026-03-09T21:11:33.062784","MEAN_MOTION":14.92997204,"ECCENTRICITY":0.00562796,"INCLINATION":98.5504,"RA_OF_ASC_NODE":202.6828,"ARG_OF_PERICENTER":125.3801,"MEAN_ANOMALY":235.2692,"EPHEMERIS_TYPE":0,"CLASSIFICATION_TYPE":"U","NORAD_CAT_ID":26432,"ELEMENT_SET_NO":999,"REV_AT_EPOCH":35696,"BSTAR":0.0033240821,"MEAN_MOTION_DOT":0.00035726,"MEAN_MOTION_DDOT":0}]
